CCSDS_OMM_VERS = 2.0
CREATION_DATE  = 
ORIGINATOR     = 

OBJECT_NAME    = STARLINK-35972
OBJECT_ID      = 2025-271X
CENTER_NAME    = EARTH
REF_FRAME      = TEME
TIME_SYSTEM    = UTC
MEAN_ELEMENT_THEORY = SGP/SGP4

EPOCH          = 2025-12-24T02:27:14.478624
MEAN_MOTION    = 15.39644446
ECCENTRICITY   = .0002467
INCLINATION    = 53.1620
RA_OF_ASC_NODE = 133.1754
ARG_OF_PERICENTER = 80.0074
MEAN_ANOMALY   = 280.1209

EPHEMERIS_TYPE = 0
CLASSIFICATION_TYPE = U
NORAD_CAT_ID   = 66638
ELEMENT_SET_NO = 999
REV_AT_EPOCH   = 596
BSTAR          = .95988E-3
MEAN_MOTION_DOT = .3822E-3
MEAN_MOTION_DDOT = 0

CCSDS_OMM_VERS = 2.0
CREATION_DATE  = 
ORIGINATOR     = 

OBJECT_NAME    = STARLINK-35908
OBJECT_ID      = 2025-271Y
CENTER_NAME    = EARTH
REF_FRAME      = TEME
TIME_SYSTEM    = UTC
MEAN_ELEMENT_THEORY = SGP/SGP4

EPOCH          = 2025-12-24T02:20:33.046944
MEAN_MOTION    = 15.39628481
ECCENTRICITY   = .000188
INCLINATION    = 53.1622
RA_OF_ASC_NODE = 133.1471
ARG_OF_PERICENTER = 82.1852
MEAN_ANOMALY   = 277.9366

EPHEMERIS_TYPE = 0
CLASSIFICATION_TYPE = U
NORAD_CAT_ID   = 66639
ELEMENT_SET_NO = 999
REV_AT_EPOCH   = 596
BSTAR          = .13189E-2
MEAN_MOTION_DOT = .52736E-3
MEAN_MOTION_DDOT = 0

CCSDS_OMM_VERS = 2.0
CREATION_DATE  = 
ORIGINATOR     = 

OBJECT_NAME    = STARLINK-35921
OBJECT_ID      = 2025-271Z
CENTER_NAME    = EARTH
REF_FRAME      = TEME
TIME_SYSTEM    = UTC
MEAN_ELEMENT_THEORY = SGP/SGP4

EPOCH          = 2025-12-24T02:33:55.575072
MEAN_MOTION    = 15.39633842
ECCENTRICITY   = .0001841
INCLINATION    = 53.1610
RA_OF_ASC_NODE = 133.2065
ARG_OF_PERICENTER = 70.5998
MEAN_ANOMALY   = 289.5206

EPHEMERIS_TYPE = 0
CLASSIFICATION_TYPE = U
NORAD_CAT_ID   = 66640
ELEMENT_SET_NO = 999
REV_AT_EPOCH   = 596
BSTAR          = .16907E-2
MEAN_MOTION_DOT = .67864E-3
MEAN_MOTION_DDOT = 0

CCSDS_OMM_VERS = 2.0
CREATION_DATE  = 
ORIGINATOR     = 

OBJECT_NAME    = STARLINK-35923
OBJECT_ID      = 2025-271AA
CENTER_NAME    = EARTH
REF_FRAME      = TEME
TIME_SYSTEM    = UTC
MEAN_ELEMENT_THEORY = SGP/SGP4

EPOCH          = 2025-12-24T01:53:27.760992
MEAN_MOTION    = 15.45595908
ECCENTRICITY   = .0000545
INCLINATION    = 53.1609
RA_OF_ASC_NODE = 133.0279
ARG_OF_PERICENTER = 71.1975
MEAN_ANOMALY   = 288.9091

EPHEMERIS_TYPE = 0
CLASSIFICATION_TYPE = U
NORAD_CAT_ID   = 66641
ELEMENT_SET_NO = 999
REV_AT_EPOCH   = 596
BSTAR          = .15184E-2
MEAN_MOTION_DOT = .74519E-3
MEAN_MOTION_DDOT = 0

CCSDS_OMM_VERS = 2.0
CREATION_DATE  = 
ORIGINATOR     = 

OBJECT_NAME    = STARLINK-35926
OBJECT_ID      = 2025-271AB
CENTER_NAME    = EARTH
REF_FRAME      = TEME
TIME_SYSTEM    = UTC
MEAN_ELEMENT_THEORY = SGP/SGP4

EPOCH          = 2025-12-24T04:00:01.998720
MEAN_MOTION    = 15.42856702
ECCENTRICITY   = .000217
INCLINATION    = 53.1602
RA_OF_ASC_NODE = 132.6226
ARG_OF_PERICENTER = 80.9303
MEAN_ANOMALY   = 42.2823

EPHEMERIS_TYPE = 0
CLASSIFICATION_TYPE = U
NORAD_CAT_ID   = 66642
ELEMENT_SET_NO = 999
REV_AT_EPOCH   = 584
BSTAR          = -.68911E-1
MEAN_MOTION_DOT = -.2689289E-1
MEAN_MOTION_DDOT = 0

CCSDS_OMM_VERS = 2.0
CREATION_DATE  = 
ORIGINATOR     = 

OBJECT_NAME    = STARLINK-35918
OBJECT_ID      = 2025-271AC
CENTER_NAME    = EARTH
REF_FRAME      = TEME
TIME_SYSTEM    = UTC
MEAN_ELEMENT_THEORY = SGP/SGP4

EPOCH          = 2025-12-24T04:00:01.998720
MEAN_MOTION    = 15.39575833
ECCENTRICITY   = .0001158
INCLINATION    = 53.1603
RA_OF_ASC_NODE = 132.7706
ARG_OF_PERICENTER = 84.5516
MEAN_ANOMALY   = 324.4727

EPHEMERIS_TYPE = 0
CLASSIFICATION_TYPE = U
NORAD_CAT_ID   = 66643
ELEMENT_SET_NO = 999
REV_AT_EPOCH   = 607
BSTAR          = .13544E-2
MEAN_MOTION_DOT = .54083E-3
MEAN_MOTION_DDOT = 0

CCSDS_OMM_VERS = 2.0
CREATION_DATE  = 
ORIGINATOR     = 

OBJECT_NAME    = STARLINK-35938
OBJECT_ID      = 2025-271AD
CENTER_NAME    = EARTH
REF_FRAME      = TEME
TIME_SYSTEM    = UTC
MEAN_ELEMENT_THEORY = SGP/SGP4

EPOCH          = 2025-12-24T04:00:01.998720
MEAN_MOTION    = 15.42875001
ECCENTRICITY   = .0001997
INCLINATION    = 53.1603
RA_OF_ASC_NODE = 132.6271
ARG_OF_PERICENTER = 86.8771
MEAN_ANOMALY   = 34.4691

EPHEMERIS_TYPE = 0
CLASSIFICATION_TYPE = U
NORAD_CAT_ID   = 66644
ELEMENT_SET_NO = 999
REV_AT_EPOCH   = 607
BSTAR          = -.69087E-1
MEAN_MOTION_DOT = -.2696593E-1
MEAN_MOTION_DDOT = 0

CCSDS_OMM_VERS = 2.0
CREATION_DATE  = 
ORIGINATOR     = 

OBJECT_NAME    = SHENZHOU-22
OBJECT_ID      = 2025-272A
CENTER_NAME    = EARTH
REF_FRAME      = TEME
TIME_SYSTEM    = UTC
MEAN_ELEMENT_THEORY = SGP/SGP4

EPOCH          = 2025-12-23T22:08:03.098976
MEAN_MOTION    = 15.59613430
ECCENTRICITY   = .00080636
INCLINATION    = 41.4684
RA_OF_ASC_NODE = 308.7959
ARG_OF_PERICENTER = 129.7983
MEAN_ANOMALY   = 230.3567

EPHEMERIS_TYPE = 0
CLASSIFICATION_TYPE = U
NORAD_CAT_ID   = 66645
ELEMENT_SET_NO = 999
REV_AT_EPOCH   = 26550
BSTAR          = .17429265E-3
MEAN_MOTION_DOT = .1399E-3
MEAN_MOTION_DDOT = 0

CCSDS_OMM_VERS = 2.0
CREATION_DATE  = 
ORIGINATOR     = 

OBJECT_NAME    = COSMOS 2597 (RODNIK-S 22)
OBJECT_ID      = 2025-273A
CENTER_NAME    = EARTH
REF_FRAME      = TEME
TIME_SYSTEM    = UTC
MEAN_ELEMENT_THEORY = SGP/SGP4

EPOCH          = 2025-12-24T03:42:33.321312
MEAN_MOTION    = 12.41952205
ECCENTRICITY   = .00076
INCLINATION    = 82.4994
RA_OF_ASC_NODE = 279.3613
ARG_OF_PERICENTER = 259.3113
MEAN_ANOMALY   = 100.7110

EPHEMERIS_TYPE = 0
CLASSIFICATION_TYPE = U
NORAD_CAT_ID   = 66647
ELEMENT_SET_NO = 999
REV_AT_EPOCH   = 355
BSTAR          = .24874E-3
MEAN_MOTION_DOT = .44E-6
MEAN_MOTION_DDOT = 0

CCSDS_OMM_VERS = 2.0
CREATION_DATE  = 
ORIGINATOR     = 

OBJECT_NAME    = COSMOS 2598 (RODNIK-S 23)
OBJECT_ID      = 2025-273B
CENTER_NAME    = EARTH
REF_FRAME      = TEME
TIME_SYSTEM    = UTC
MEAN_ELEMENT_THEORY = SGP/SGP4

EPOCH          = 2025-12-24T03:14:08.513664
MEAN_MOTION    = 12.43233600
ECCENTRICITY   = .0008174
INCLINATION    = 82.5033
RA_OF_ASC_NODE = 279.3607
ARG_OF_PERICENTER = 209.6665
MEAN_ANOMALY   = 150.3953

EPHEMERIS_TYPE = 0
CLASSIFICATION_TYPE = U
NORAD_CAT_ID   = 66648
ELEMENT_SET_NO = 999
REV_AT_EPOCH   = 355
BSTAR          = .18419E-3
MEAN_MOTION_DOT = .36E-6
MEAN_MOTION_DDOT = 0

CCSDS_OMM_VERS = 2.0
CREATION_DATE  = 
ORIGINATOR     = 

OBJECT_NAME    = COSMOS 2599 (RODNIK-S 24)
OBJECT_ID      = 2025-273C
CENTER_NAME    = EARTH
REF_FRAME      = TEME
TIME_SYSTEM    = UTC
MEAN_ELEMENT_THEORY = SGP/SGP4

EPOCH          = 2025-12-24T02:03:05.599872
MEAN_MOTION    = 12.41152116
ECCENTRICITY   = .0006341
INCLINATION    = 82.5051
RA_OF_ASC_NODE = 279.4378
ARG_OF_PERICENTER = 247.6642
MEAN_ANOMALY   = 112.3765

EPHEMERIS_TYPE = 0
CLASSIFICATION_TYPE = U
NORAD_CAT_ID   = 66649
ELEMENT_SET_NO = 999
REV_AT_EPOCH   = 354
BSTAR          = .57744E-3
MEAN_MOTION_DOT = .88E-6
MEAN_MOTION_DDOT = 0

CCSDS_OMM_VERS = 2.0
CREATION_DATE  = 
ORIGINATOR     = 

OBJECT_NAME    = BEE-1000
OBJECT_ID      = 2025-274A
CENTER_NAME    = EARTH
REF_FRAME      = TEME
TIME_SYSTEM    = UTC
MEAN_ELEMENT_THEORY = SGP/SGP4

EPOCH          = 2025-12-23T14:51:55.927584
MEAN_MOTION    = 14.91696027
ECCENTRICITY   = .00109862
INCLINATION    = 97.7405
RA_OF_ASC_NODE = 284.6079
ARG_OF_PERICENTER = 211.3109
MEAN_ANOMALY   = 148.7457

EPHEMERIS_TYPE = 0
CLASSIFICATION_TYPE = U
NORAD_CAT_ID   = 66650
ELEMENT_SET_NO = 999
REV_AT_EPOCH   = 402
BSTAR          = .16788054E-3
MEAN_MOTION_DOT = .1634E-4
MEAN_MOTION_DDOT = 0

