STARLINK-35972          
1 66638U 25271X   25358.10225091  .00038220  00000+0  95988-3 0  9995
2 66638  53.1620 133.1754 0002467  80.0074 280.1209 15.39644446  5968
STARLINK-35908          
1 66639U 25271Y   25358.09760471  .00052736  00000+0  13189-2 0  9990
2 66639  53.1622 133.1471 0001880  82.1852 277.9366 15.39628481  5961
STARLINK-35921          
1 66640U 25271Z   25358.10689323  .00067864  00000+0  16907-2 0  9999
2 66640  53.1610 133.2065 0001841  70.5998 289.5206 15.39633842  5968
STARLINK-35923          
1 66641U 25271AA  25358.07879353  .00074519  00000+0  15184-2 0  9991
2 66641  53.1609 133.0279 0000545  71.1975 288.9091 15.45595908  5966
STARLINK-35926          
1 66642U 25271AB  25358.16668980 -.02689289  00000+0 -68911-1 0  9999
2 66642  53.1602 132.6226 0002170  80.9303  42.2823 15.42856702  5846
STARLINK-35918          
1 66643U 25271AC  25358.16668980  .00054083  00000+0  13544-2 0  9997
2 66643  53.1603 132.7706 0001158  84.5516 324.4727 15.39575833  6076
STARLINK-35938          
1 66644U 25271AD  25358.16668980 -.02696593  00000+0 -69087-1 0  9992
2 66644  53.1603 132.6271 0001997  86.8771  34.4691 15.42875001  6074
SHENZHOU-22             
1 66645U 25272A   25357.92225809  .00013990  00000+0  17429-3 0  9991
2 66645  41.4684 308.7959 0008063 129.7983 230.3567 15.59613430265504
COSMOS 2597 (RODNIK-S *)
1 66647U 25273A   25358.15455233  .00000044  00000+0  24874-3 0  9994
2 66647  82.4994 279.3613 0007600 259.3113 100.7110 12.41952205  3559
COSMOS 2598 (RODNIK-S *)
1 66648U 25273B   25358.13482076  .00000036  00000+0  18419-3 0  9997
2 66648  82.5033 279.3607 0008174 209.6665 150.3953 12.43233600  3554
COSMOS 2599 (RODNIK-S *)
1 66649U 25273C   25358.08548148  .00000088  00000+0  57744-3 0  9996
2 66649  82.5051 279.4378 0006341 247.6642 112.3765 12.41152116  3540
BEE-1000                
1 66650U 25274A   25357.61939731  .00001634  00000+0  16788-3 0  9990
2 66650  97.7405 284.6079 0010986 211.3109 148.7457 14.91696027  4021
